ONEWEB-0674             
1 55833U 23029AP  25082.56330293  .00000088  00000+0  20356-3 0  9992
2 55833  87.9081  19.3370 0002355  86.7188 273.4211 13.14504603100216
ONEWEB-0675             
1 55834U 23029AQ  25082.85549670  .00000032  00000+0  48105-4 0  9998
2 55834  87.9229  34.4940 0001620  74.5081 285.6230 13.19727130100238
ONEWEB-0720             
1 55835U 23029AR  25082.84759087  .00000060  00000+0  11766-3 0  9996
2 55835  87.9231  34.4930 0002243  71.9393 288.1984 13.19728210100133
ONEWEB-0537             
1 56046U 23043A   25082.68460512  .00000008  00000+0 -13575-4 0  9995
2 56046  87.9069 318.5622 0001470  81.0988 279.0310 13.16592215100597
ONEWEB-0538             
1 56047U 23043B   25082.90626726  .00000020  00000+0  17745-4 0  9998
2 56047  87.9075 318.5402 0001620  70.7440 289.3866 13.16592040100637
ONEWEB-0546             
1 56048U 23043C   25082.58961217 -.00000007  00000+0 -52460-4 0  9990
2 56048  87.9077 318.5717 0001095  99.6831 260.4424 13.16591944 99672
ONEWEB-0547             
1 56049U 23043D   25082.70442213 -.00000223  00000+0 -57111-3 0  9992
2 56049  87.9324 333.8025 0001734  71.4440 288.6882 13.21830242 99622
ONEWEB-0548             
1 56050U 23043E   25082.91894193  .00000065  00000+0  13615-3 0  9998
2 56050  87.9073 318.5472 0002138  90.9047 269.2328 13.16592806100627
