<?xml version="1.0" encoding="UTF-8"?>
<ndm xmlns:xsi="http://www.w3.org/2001/XMLSchema-instance" xsi:noNamespaceSchemaLocation="https://sanaregistry.org/r/ndmxml_unqualified/ndmxml-2.0.0-master-2.0.xsd">
<omm id="CCSDS_OMM_VERS" version="2.0">
<header><CREATION_DATE/><ORIGINATOR/></header><body><segment><metadata><OBJECT_NAME>ONEWEB-0674</OBJECT_NAME><OBJECT_ID>2023-029AP</OBJECT_ID><CENTER_NAME>EARTH</CENTER_NAME><REF_FRAME>TEME</REF_FRAME><TIME_SYSTEM>UTC</TIME_SYSTEM><MEAN_ELEMENT_THEORY>SGP4</MEAN_ELEMENT_THEORY></metadata><data><meanElements><EPOCH>2025-03-23T13:31:09.373152</EPOCH><MEAN_MOTION>13.14504603</MEAN_MOTION><ECCENTRICITY>.0002355</ECCENTRICITY><INCLINATION>87.9081</INCLINATION><RA_OF_ASC_NODE>19.3370</RA_OF_ASC_NODE><ARG_OF_PERICENTER>86.7188</ARG_OF_PERICENTER><MEAN_ANOMALY>273.4211</MEAN_ANOMALY></meanElements><tleParameters><EPHEMERIS_TYPE>0</EPHEMERIS_TYPE><CLASSIFICATION_TYPE>U</CLASSIFICATION_TYPE><NORAD_CAT_ID>55833</NORAD_CAT_ID><ELEMENT_SET_NO>999</ELEMENT_SET_NO><REV_AT_EPOCH>10021</REV_AT_EPOCH><BSTAR>.20356E-3</BSTAR><MEAN_MOTION_DOT>.88E-6</MEAN_MOTION_DOT><MEAN_MOTION_DDOT>0</MEAN_MOTION_DDOT></tleParameters></data></segment></body></omm>
<omm id="CCSDS_OMM_VERS" version="2.0">
<header><CREATION_DATE/><ORIGINATOR/></header><body><segment><metadata><OBJECT_NAME>ONEWEB-0675</OBJECT_NAME><OBJECT_ID>2023-029AQ</OBJECT_ID><CENTER_NAME>EARTH</CENTER_NAME><REF_FRAME>TEME</REF_FRAME><TIME_SYSTEM>UTC</TIME_SYSTEM><MEAN_ELEMENT_THEORY>SGP4</MEAN_ELEMENT_THEORY></metadata><data><meanElements><EPOCH>2025-03-23T20:31:54.914880</EPOCH><MEAN_MOTION>13.19727130</MEAN_MOTION><ECCENTRICITY>.000162</ECCENTRICITY><INCLINATION>87.9229</INCLINATION><RA_OF_ASC_NODE>34.4940</RA_OF_ASC_NODE><ARG_OF_PERICENTER>74.5081</ARG_OF_PERICENTER><MEAN_ANOMALY>285.6230</MEAN_ANOMALY></meanElements><tleParameters><EPHEMERIS_TYPE>0</EPHEMERIS_TYPE><CLASSIFICATION_TYPE>U</CLASSIFICATION_TYPE><NORAD_CAT_ID>55834</NORAD_CAT_ID><ELEMENT_SET_NO>999</ELEMENT_SET_NO><REV_AT_EPOCH>10023</REV_AT_EPOCH><BSTAR>.48105E-4</BSTAR><MEAN_MOTION_DOT>.32E-6</MEAN_MOTION_DOT><MEAN_MOTION_DDOT>0</MEAN_MOTION_DDOT></tleParameters></data></segment></body></omm>
<omm id="CCSDS_OMM_VERS" version="2.0">
<header><CREATION_DATE/><ORIGINATOR/></header><body><segment><metadata><OBJECT_NAME>ONEWEB-0720</OBJECT_NAME><OBJECT_ID>2023-029AR</OBJECT_ID><CENTER_NAME>EARTH</CENTER_NAME><REF_FRAME>TEME</REF_FRAME><TIME_SYSTEM>UTC</TIME_SYSTEM><MEAN_ELEMENT_THEORY>SGP4</MEAN_ELEMENT_THEORY></metadata><data><meanElements><EPOCH>2025-03-23T20:20:31.851168</EPOCH><MEAN_MOTION>13.19728210</MEAN_MOTION><ECCENTRICITY>.0002243</ECCENTRICITY><INCLINATION>87.9231</INCLINATION><RA_OF_ASC_NODE>34.4930</RA_OF_ASC_NODE><ARG_OF_PERICENTER>71.9393</ARG_OF_PERICENTER><MEAN_ANOMALY>288.1984</MEAN_ANOMALY></meanElements><tleParameters><EPHEMERIS_TYPE>0</EPHEMERIS_TYPE><CLASSIFICATION_TYPE>U</CLASSIFICATION_TYPE><NORAD_CAT_ID>55835</NORAD_CAT_ID><ELEMENT_SET_NO>999</ELEMENT_SET_NO><REV_AT_EPOCH>10013</REV_AT_EPOCH><BSTAR>.11766E-3</BSTAR><MEAN_MOTION_DOT>.6E-6</MEAN_MOTION_DOT><MEAN_MOTION_DDOT>0</MEAN_MOTION_DDOT></tleParameters></data></segment></body></omm>
<omm id="CCSDS_OMM_VERS" version="2.0">
<header><CREATION_DATE/><ORIGINATOR/></header><body><segment><metadata><OBJECT_NAME>ONEWEB-0537</OBJECT_NAME><OBJECT_ID>2023-043A</OBJECT_ID><CENTER_NAME>EARTH</CENTER_NAME><REF_FRAME>TEME</REF_FRAME><TIME_SYSTEM>UTC</TIME_SYSTEM><MEAN_ELEMENT_THEORY>SGP4</MEAN_ELEMENT_THEORY></metadata><data><meanElements><EPOCH>2025-03-23T16:25:49.882368</EPOCH><MEAN_MOTION>13.16592215</MEAN_MOTION><ECCENTRICITY>.000147</ECCENTRICITY><INCLINATION>87.9069</INCLINATION><RA_OF_ASC_NODE>318.5622</RA_OF_ASC_NODE><ARG_OF_PERICENTER>81.0988</ARG_OF_PERICENTER><MEAN_ANOMALY>279.0310</MEAN_ANOMALY></meanElements><tleParameters><EPHEMERIS_TYPE>0</EPHEMERIS_TYPE><CLASSIFICATION_TYPE>U</CLASSIFICATION_TYPE><NORAD_CAT_ID>56046</NORAD_CAT_ID><ELEMENT_SET_NO>999</ELEMENT_SET_NO><REV_AT_EPOCH>10059</REV_AT_EPOCH><BSTAR>-.13575E-4</BSTAR><MEAN_MOTION_DOT>.8E-7</MEAN_MOTION_DOT><MEAN_MOTION_DDOT>0</MEAN_MOTION_DDOT></tleParameters></data></segment></body></omm>
<omm id="CCSDS_OMM_VERS" version="2.0">
<header><CREATION_DATE/><ORIGINATOR/></header><body><segment><metadata><OBJECT_NAME>ONEWEB-0538</OBJECT_NAME><OBJECT_ID>2023-043B</OBJECT_ID><CENTER_NAME>EARTH</CENTER_NAME><REF_FRAME>TEME</REF_FRAME><TIME_SYSTEM>UTC</TIME_SYSTEM><MEAN_ELEMENT_THEORY>SGP4</MEAN_ELEMENT_THEORY></metadata><data><meanElements><EPOCH>2025-03-23T21:45:01.491264</EPOCH><MEAN_MOTION>13.16592040</MEAN_MOTION><ECCENTRICITY>.000162</ECCENTRICITY><INCLINATION>87.9075</INCLINATION><RA_OF_ASC_NODE>318.5402</RA_OF_ASC_NODE><ARG_OF_PERICENTER>70.7440</ARG_OF_PERICENTER><MEAN_ANOMALY>289.3866</MEAN_ANOMALY></meanElements><tleParameters><EPHEMERIS_TYPE>0</EPHEMERIS_TYPE><CLASSIFICATION_TYPE>U</CLASSIFICATION_TYPE><NORAD_CAT_ID>56047</NORAD_CAT_ID><ELEMENT_SET_NO>999</ELEMENT_SET_NO><REV_AT_EPOCH>10063</REV_AT_EPOCH><BSTAR>.17745E-4</BSTAR><MEAN_MOTION_DOT>.2E-6</MEAN_MOTION_DOT><MEAN_MOTION_DDOT>0</MEAN_MOTION_DDOT></tleParameters></data></segment></body></omm>
<omm id="CCSDS_OMM_VERS" version="2.0">
<header><CREATION_DATE/><ORIGINATOR/></header><body><segment><metadata><OBJECT_NAME>ONEWEB-0546</OBJECT_NAME><OBJECT_ID>2023-043C</OBJECT_ID><CENTER_NAME>EARTH</CENTER_NAME><REF_FRAME>TEME</REF_FRAME><TIME_SYSTEM>UTC</TIME_SYSTEM><MEAN_ELEMENT_THEORY>SGP4</MEAN_ELEMENT_THEORY></metadata><data><meanElements><EPOCH>2025-03-23T14:09:02.491488</EPOCH><MEAN_MOTION>13.16591944</MEAN_MOTION><ECCENTRICITY>.0001095</ECCENTRICITY><INCLINATION>87.9077</INCLINATION><RA_OF_ASC_NODE>318.5717</RA_OF_ASC_NODE><ARG_OF_PERICENTER>99.6831</ARG_OF_PERICENTER><MEAN_ANOMALY>260.4424</MEAN_ANOMALY></meanElements><tleParameters><EPHEMERIS_TYPE>0</EPHEMERIS_TYPE><CLASSIFICATION_TYPE>U</CLASSIFICATION_TYPE><NORAD_CAT_ID>56048</NORAD_CAT_ID><ELEMENT_SET_NO>999</ELEMENT_SET_NO><REV_AT_EPOCH>9967</REV_AT_EPOCH><BSTAR>-.5246E-4</BSTAR><MEAN_MOTION_DOT>-.7E-7</MEAN_MOTION_DOT><MEAN_MOTION_DDOT>0</MEAN_MOTION_DDOT></tleParameters></data></segment></body></omm>
<omm id="CCSDS_OMM_VERS" version="2.0">
<header><CREATION_DATE/><ORIGINATOR/></header><body><segment><metadata><OBJECT_NAME>ONEWEB-0547</OBJECT_NAME><OBJECT_ID>2023-043D</OBJECT_ID><CENTER_NAME>EARTH</CENTER_NAME><REF_FRAME>TEME</REF_FRAME><TIME_SYSTEM>UTC</TIME_SYSTEM><MEAN_ELEMENT_THEORY>SGP4</MEAN_ELEMENT_THEORY></metadata><data><meanElements><EPOCH>2025-03-23T16:54:22.072032</EPOCH><MEAN_MOTION>13.21830242</MEAN_MOTION><ECCENTRICITY>.0001734</ECCENTRICITY><INCLINATION>87.9324</INCLINATION><RA_OF_ASC_NODE>333.8025</RA_OF_ASC_NODE><ARG_OF_PERICENTER>71.4440</ARG_OF_PERICENTER><MEAN_ANOMALY>288.6882</MEAN_ANOMALY></meanElements><tleParameters><EPHEMERIS_TYPE>0</EPHEMERIS_TYPE><CLASSIFICATION_TYPE>U</CLASSIFICATION_TYPE><NORAD_CAT_ID>56049</NORAD_CAT_ID><ELEMENT_SET_NO>999</ELEMENT_SET_NO><REV_AT_EPOCH>9962</REV_AT_EPOCH><BSTAR>-.57111E-3</BSTAR><MEAN_MOTION_DOT>-.223E-5</MEAN_MOTION_DOT><MEAN_MOTION_DDOT>0</MEAN_MOTION_DDOT></tleParameters></data></segment></body></omm>
<omm id="CCSDS_OMM_VERS" version="2.0">
<header><CREATION_DATE/><ORIGINATOR/></header><body><segment><metadata><OBJECT_NAME>ONEWEB-0548</OBJECT_NAME><OBJECT_ID>2023-043E</OBJECT_ID><CENTER_NAME>EARTH</CENTER_NAME><REF_FRAME>TEME</REF_FRAME><TIME_SYSTEM>UTC</TIME_SYSTEM><MEAN_ELEMENT_THEORY>SGP4</MEAN_ELEMENT_THEORY></metadata><data><meanElements><EPOCH>2025-03-23T22:03:16.582752</EPOCH><MEAN_MOTION>13.16592806</MEAN_MOTION><ECCENTRICITY>.0002138</ECCENTRICITY><INCLINATION>87.9073</INCLINATION><RA_OF_ASC_NODE>318.5472</RA_OF_ASC_NODE><ARG_OF_PERICENTER>90.9047</ARG_OF_PERICENTER><MEAN_ANOMALY>269.2328</MEAN_ANOMALY></meanElements><tleParameters><EPHEMERIS_TYPE>0</EPHEMERIS_TYPE><CLASSIFICATION_TYPE>U</CLASSIFICATION_TYPE><NORAD_CAT_ID>56050</NORAD_CAT_ID><ELEMENT_SET_NO>999</ELEMENT_SET_NO><REV_AT_EPOCH>10062</REV_AT_EPOCH><BSTAR>.13615E-3</BSTAR><MEAN_MOTION_DOT>.65E-6</MEAN_MOTION_DOT><MEAN_MOTION_DDOT>0</MEAN_MOTION_DDOT></tleParameters></data></segment></body></omm>

</ndm>
